[
    {
        "Altitude(m)": 604969.08915099,
        "Argument of Periapsis(deg)": 0.0,
        "Eccentricity": 0.0,
        "Inclination(deg)": 60.0,
        "Latitude(deg)": -0.09267293951409869,
        "Longitude(deg)": -155.02247253844348,
        "Mean Anomaly(deg)": 0.0,
        "RAAN(deg)": 305.0,
        "Satellite Name": "Test1 1342",
        "Satellite Number": 1342,
        "Semi-Major Axis(m)": 6980739.136638005,
        "Time(s)": 0
    },
    {
        "Altitude(m)": 604900.028559555,
        "Argument of Periapsis(deg)": 0.00010418945913296404,
        "Eccentricity": 0.0,
        "Inclination(deg)": 60.0,
        "Latitude(deg)": 0.4477525358727104,
        "Longitude(deg)": -154.75434867338413,
        "Mean Anomaly(deg)": 0.620106145461853,
        "RAAN(deg)": 304.99957995086027,
        "Satellite Name": "Test1 1342",
        "Satellite Number": 1342,
        "Semi-Major Axis(m)": 6980739.136638005,
        "Time(s)": 10
    }
]